{"type": "FeatureCollection", "features": [ {"type": "Feature", "properties": {"norad_id": 38779, "name": "GSAT-10 (GAGAN/PRN 128)", "group": "gnss", "lat": -0.001613377227481152, "lon": -81.73260008681386, "alt_km": 35794.469057708884, "timestamp": "2025-12-10T07:43:55.022194+00:00", "meta": {"OBJECT_NAME": "GSAT-10 (GAGAN/PRN 128)", "OBJECT_ID": "2012-051B", "EPOCH": "2025-12-09T18:43:21.758016", "MEAN_MOTION": 1.00269348, "ECCENTRICITY": 0.0002107, "INCLINATION": 0.0559, "RA_OF_ASC_NODE": 262.8483, "ARG_OF_PERICENTER": 225.7823, "MEAN_ANOMALY": 313.9598, "EPHEMERIS_TYPE": 0, "CLASSIFICATION_TYPE": "U", "NORAD_CAT_ID": 38779, "ELEMENT_SET_NO": 999, "REV_AT_EPOCH": 4819, "BSTAR": 0, "MEAN_MOTION_DOT": -1.61e-06, "MEAN_MOTION_DDOT": 0}, "tle": {"line1": "1 38779U 12051B   25343.78011294 -.00000161  00000+0  00000+0 0  9999", "line2": "2 38779   0.0559 262.8483 0002107 225.7823 313.9598  1.00269348 48190"}}, "geometry": {"type": "Point", "coordinates": [-81.73260008681386, -0.001613377227481152]}}, {"type": "Feature", "properties": {"norad_id": 38833, "name": "GPS BIIF-3  (PRN 24)", "group": "gnss", "lat": -20.879379910947705, "lon": 134.95489612532973, "alt_km": 20178.982062967738, "timestamp": "2025-12-10T07:43:55.022206+00:00", "meta": {"OBJECT_NAME": "GPS BIIF-3  (PRN 24)", "OBJECT_ID": "2012-053A", "EPOCH": "2025-12-09T08:40:03.793728", "MEAN_MOTION": 2.00564926, "ECCENTRICITY": 0.01757344, "INCLINATION": 53.5568, "RA_OF_ASC_NODE": 151.3769, "ARG_OF_PERICENTER": 63.947, "MEAN_ANOMALY": 297.8481, "EPHEMERIS_TYPE": 0, "CLASSIFICATION_TYPE": "U", "NORAD_CAT_ID": 38833, "ELEMENT_SET_NO": 999, "REV_AT_EPOCH": 9563, "BSTAR": 0, "MEAN_MOTION_DOT": 6.3e-07, "MEAN_MOTION_DDOT": 0}, "tle": {"line1": "1 38833U 12053A   25343.36115502  .00000063  00000+0  00000+0 0  9993", "line2": "2 38833  53.5568 151.3769 0175734  63.9470 297.8481  2.00564926 95633"}}, "geometry": {"type": "Point", "coordinates": [134.95489612532973, -20.879379910947705]}}, {"type": "Feature", "properties": {"norad_id": 38857, "name": "GSAT0103 (GALILEO-FM3)", "group": "gnss", "lat": -10.506397789597683, "lon": -66.00906084428198, "alt_km": 23222.046662670597, "timestamp": "2025-12-10T07:43:55.022219+00:00", "meta": {"OBJECT_NAME": "GSAT0103 (GALILEO-FM3)", "OBJECT_ID": "2012-055A", "EPOCH": "2025-12-08T20:02:14.787168", "MEAN_MOTION": 1.70473288, "ECCENTRICITY": 0.000255, "INCLINATION": 55.6903, "RA_OF_ASC_NODE": 106.7738, "ARG_OF_PERICENTER": 268.6106, "MEAN_ANOMALY": 91.3235, "EPHEMERIS_TYPE": 0, "CLASSIFICATION_TYPE": "U", "NORAD_CAT_ID": 38857, "ELEMENT_SET_NO": 999, "REV_AT_EPOCH": 8176, "BSTAR": 0, "MEAN_MOTION_DOT": 1.1e-07, "MEAN_MOTION_DDOT": 0}, "tle": {"line1": "1 38857U 12055A   25342.83489337  .00000011  00000+0  00000+0 0  9995", "line2": "2 38857  55.6903 106.7738 0002550 268.6106  91.3235  1.70473288 81769"}}, "geometry": {"type": "Point", "coordinates": [-66.00906084428198, -10.506397789597683]}}, {"type": "Feature", "properties": {"norad_id": 38953, "name": "BEIDOU-2 G6 (C02)", "group": "gnss", "lat": -1.601689062305984, "lon": -80.83189344051898, "alt_km": 35784.42690886354, "timestamp": "2025-12-10T07:43:55.022232+00:00", "meta": {"OBJECT_NAME": "BEIDOU-2 G6 (C02)", "OBJECT_ID": "2012-059A", "EPOCH": "2025-12-09T19:06:31.590144", "MEAN_MOTION": 1.00269722, "ECCENTRICITY": 0.0007552, "INCLINATION": 3.9415, "RA_OF_ASC_NODE": 75.5279, "ARG_OF_PERICENTER": 289.1336, "MEAN_ANOMALY": 84.7783, "EPHEMERIS_TYPE": 0, "CLASSIFICATION_TYPE": "U", "NORAD_CAT_ID": 38953, "ELEMENT_SET_NO": 999, "REV_AT_EPOCH": 4801, "BSTAR": 0, "MEAN_MOTION_DOT": -1.73e-06, "MEAN_MOTION_DDOT": 0}, "tle": {"line1": "1 38953U 12059A   25343.79619896 -.00000173  00000+0  00000+0 0  9997", "line2": "2 38953   3.9415  75.5279 0007552 289.1336  84.7783  1.00269722 48017"}}, "geometry": {"type": "Point", "coordinates": [-80.83189344051898, -1.601689062305984]}}, {"type": "Feature", "properties": {"norad_id": 38977, "name": "LUCH 5B (SDCM/PRN 125)", "group": "gnss", "lat": 8.018616228609417, "lon": 179.29832734649827, "alt_km": 35771.781611583116, "timestamp": "2025-12-10T07:43:55.022244+00:00", "meta": {"OBJECT_NAME": "LUCH 5B (SDCM/PRN 125)", "OBJECT_ID": "2012-061A", "EPOCH": "2025-12-08T10:06:12.360096", "MEAN_MOTION": 1.00272234, "ECCENTRICITY": 0.00072728, "INCLINATION": 10.0716, "RA_OF_ASC_NODE": 51.747, "ARG_OF_PERICENTER": 191.5954, "MEAN_ANOMALY": 329.292, "EPHEMERIS_TYPE": 0, "CLASSIFICATION_TYPE": "U", "NORAD_CAT_ID": 38977, "ELEMENT_SET_NO": 999, "REV_AT_EPOCH": 4769, "BSTAR": 0, "MEAN_MOTION_DOT": -1.39e-06, "MEAN_MOTION_DDOT": 0}, "tle": {"line1": "1 38977U 12061A   25342.42097639 -.00000139  00000+0  00000+0 0  9992", "line2": "2 38977  10.0716  51.7470 0007272 191.5954 329.2920  1.00272234 47691"}}, "geometry": {"type": "Point", "coordinates": [179.29832734649827, 8.018616228609417]}}, {"type": "Feature", "properties": {"norad_id": 39155, "name": "COSMOS 2485 (747)", "group": "gnss", "lat": 36.954099737639986, "lon": 100.16825586593276, "alt_km": 19187.692581620162, "timestamp": "2025-12-10T07:43:55.022256+00:00", "meta": {"OBJECT_NAME": "COSMOS 2485 (747)", "OBJECT_ID": "2013-019A", "EPOCH": "2025-12-09T07:54:23.495904", "MEAN_MOTION": 2.1310286, "ECCENTRICITY": 0.0024563, "INCLINATION": 65.3117, "RA_OF_ASC_NODE": 79.982, "ARG_OF_PERICENTER": 229.1601, "MEAN_ANOMALY": 130.6433, "EPHEMERIS_TYPE": 0, "CLASSIFICATION_TYPE": "U", "NORAD_CAT_ID": 39155, "ELEMENT_SET_NO": 999, "REV_AT_EPOCH": 9823, "BSTAR": 0, "MEAN_MOTION_DOT": -1.3e-07, "MEAN_MOTION_DDOT": 0}, "tle": {"line1": "1 39155U 13019A   25343.32943861 -.00000013  00000+0  00000+0 0  9993", "line2": "2 39155  65.3117  79.9820 0024563 229.1601 130.6433  2.13102860 98239"}}, "geometry": {"type": "Point", "coordinates": [100.16825586593276, 36.954099737639986]}}, {"type": "Feature", "properties": {"norad_id": 39166, "name": "GPS BIIF-4  (PRN 27)", "group": "gnss", "lat": 51.643432320695894, "lon": -19.75164965647812, "alt_km": 19845.156367976593, "timestamp": "2025-12-10T07:43:55.022267+00:00", "meta": {"OBJECT_NAME": "GPS BIIF-4  (PRN 27)", "OBJECT_ID": "2013-023A", "EPOCH": "2025-12-09T05:24:11.844576", "MEAN_MOTION": 2.00565099, "ECCENTRICITY": 0.01376828, "INCLINATION": 54.6551, "RA_OF_ASC_NODE": 276.7112, "ARG_OF_PERICENTER": 48.5762, "MEAN_ANOMALY": 312.6137, "EPHEMERIS_TYPE": 0, "CLASSIFICATION_TYPE": "U", "NORAD_CAT_ID": 39166, "ELEMENT_SET_NO": 999, "REV_AT_EPOCH": 9207, "BSTAR": 0, "MEAN_MOTION_DOT": -4.9e-07, "MEAN_MOTION_DDOT": 0}, "tle": {"line1": "1 39166U 13023A   25343.22513709 -.00000049  00000+0  00000+0 0  9992", "line2": "2 39166  54.6551 276.7112 0137682  48.5762 312.6137  2.00565099 92075"}}, "geometry": {"type": "Point", "coordinates": [-19.75164965647812, 51.643432320695894]}}, {"type": "Feature", "properties": {"norad_id": 39199, "name": "IRNSS-1A", "group": "gnss", "lat": -2.3441734145593256, "lon": -110.09786400119849, "alt_km": 35692.55603821847, "timestamp": "2025-12-10T07:43:55.022279+00:00", "meta": {"OBJECT_NAME": "IRNSS-1A", "OBJECT_ID": "2013-034A", "EPOCH": "2025-12-02T19:49:26.431104", "MEAN_MOTION": 1.00279053, "ECCENTRICITY": 0.00216608, "INCLINATION": 35.2852, "RA_OF_ASC_NODE": 66.6964, "ARG_OF_PERICENTER": 185.4059, "MEAN_ANOMALY": 172.3398, "EPHEMERIS_TYPE": 0, "CLASSIFICATION_TYPE": "U", "NORAD_CAT_ID": 39199, "ELEMENT_SET_NO": 999, "REV_AT_EPOCH": 4539, "BSTAR": 0, "MEAN_MOTION_DOT": 6.5e-07, "MEAN_MOTION_DDOT": 0}, "tle": {"line1": "1 39199U 13034A   25336.82600036  .00000065  00000+0  00000+0 0  9995", "line2": "2 39199  35.2852  66.6964 0021660 185.4059 172.3398  1.00279053 45393"}}, "geometry": {"type": "Point", "coordinates": [-110.09786400119849, -2.3441734145593256]}}, {"type": "Feature", "properties": {"norad_id": 39533, "name": "GPS BIIF-5  (PRN 30)", "group": "gnss", "lat": 51.128942466729896, "lon": -136.85812749896797, "alt_km": 20358.91455355943, "timestamp": "2025-12-10T07:43:55.022291+00:00", "meta": {"OBJECT_NAME": "GPS BIIF-5  (PRN 30)", "OBJECT_ID": "2014-008A", "EPOCH": "2025-12-09T05:15:48.383136", "MEAN_MOTION": 2.00574211, "ECCENTRICITY": 0.0079126, "INCLINATION": 53.6307, "RA_OF_ASC_NODE": 157.0682, "ARG_OF_PERICENTER": 226.4462, "MEAN_ANOMALY": 132.9001, "EPHEMERIS_TYPE": 0, "CLASSIFICATION_TYPE": "U", "NORAD_CAT_ID": 39533, "ELEMENT_SET_NO": 999, "REV_AT_EPOCH": 8587, "BSTAR": 0, "MEAN_MOTION_DOT": 6.2e-07, "MEAN_MOTION_DDOT": 0}, "tle": {"line1": "1 39533U 14008A   25343.21930999  .00000062  00000+0  00000+0 0  9991", "line2": "2 39533  53.6307 157.0682 0079126 226.4462 132.9001  2.00574211 85875"}}, "geometry": {"type": "Point", "coordinates": [-136.85812749896797, 51.128942466729896]}}, {"type": "Feature", "properties": {"norad_id": 39617, "name": "ASTRA 5B (EGNOS/PRN 123)", "group": "gnss", "lat": -0.021533712244555962, "lon": -141.27677597055776, "alt_km": 35772.60989715823, "timestamp": "2025-12-10T07:43:55.022321+00:00", "meta": {"OBJECT_NAME": "ASTRA 5B (EGNOS/PRN 123)", "OBJECT_ID": "2014-011B", "EPOCH": "2025-12-09T13:41:07.034784", "MEAN_MOTION": 1.00270577, "ECCENTRICITY": 0.0004507, "INCLINATION": 0.0557, "RA_OF_ASC_NODE": 30.975, "ARG_OF_PERICENTER": 231.8027, "MEAN_ANOMALY": 44.5462, "EPHEMERIS_TYPE": 0, "CLASSIFICATION_TYPE": "U", "NORAD_CAT_ID": 39617, "ELEMENT_SET_NO": 999, "REV_AT_EPOCH": 4276, "BSTAR": 0, "MEAN_MOTION_DOT": 1.39e-06, "MEAN_MOTION_DDOT": 0}, "tle": {"line1": "1 39617U 14011B   25343.57022031  .00000139  00000+0  00000+0 0  9991", "line2": "2 39617   0.0557  30.9750 0004507 231.8027  44.5462  1.00270577 42761"}}, "geometry": {"type": "Point", "coordinates": [-141.27677597055776, -0.021533712244555962]}}]}